{
  "status": "success",
  "hasErrors": false,
  "message": "",
  "length": 155,
  "payload": [
    {
      "_index": "tle",
      "_type": "_doc",
      "_id": "j_IOtnYBwxzt-ZlwnVyp",
      "_score": 9.150519,
      "_source": {
        "right_ascension": "296.5295",
        "anomaly": "023.3911",
        "calc_anomaly": 23.3911,
        "satellite_number": 10976,
        "calc_mean_motion": 2.22243619,
        "ephemeris": "0",
        "set_number": "735",
        "calc_ballistic_coefficient": -0.00000104,
        "epoch": "11005.82961733",
        "international_designator": "78068B",
        "calc_inclination": 21.7706,
        "perigee": "252.4897",
        "revolution_number": "26388",
        "line_number": 154775,
        "calc_perigee": 252.4897,
        "drag": "00000+0",
        "text": "1 10976U 78068B   11005.82961733 -.00000104  00000-0  00000-0 0  7352\n2 10976  21.7706 296.5295 7167115 252.4897  23.3911  2.22243619263888",
        "calc_drag": 0,
        "timestamp": "2011-01-05 19:54:38",
        "inclination": "021.7706",
        "eccentricity": "7167115",
        "classification": "U",
        "calc_right_ascension": 296.5295,
        "calc_mean_motion_2": 0,
        "ballistic_coefficient": "-.00000104",
        "filename": "tle2011.txt",
        "calc_eccentricity": 0.7167115,
        "mean_motion": "02.22243619",
        "mean_motion_2": "00000-0"
      }
    },
    {
      "_index": "tle",
      "_type": "_doc",
      "_id": "svIPtnYBwxzt-ZlwhHMW",
      "_score": 9.150519,
      "_source": {
        "right_ascension": "297.6001",
        "anomaly": "024.4655",
        "calc_anomaly": 24.4655,
        "satellite_number": 10976,
        "calc_mean_motion": 2.22243531,
        "ephemeris": "0",
        "set_number": "0734",
        "calc_ballistic_coefficient": -3.9e-7,
        "epoch": "11002.68124737",
        "international_designator": "78068B",
        "calc_inclination": 21.7749,
        "perigee": "250.6000",
        "revolution_number": "26381",
        "line_number": 97643,
        "calc_perigee": 250.6,
        "drag": "+00000-0",
        "text": "1 10976U 78068B   11002.68124737 -.00000039  00000-0  00000-0 0  7344\n2 10976  21.7749 297.6001 7167727 250.6000  24.4655  2.22243531263810",
        "calc_drag": 0,
        "timestamp": "2011-01-02 16:20:59",
        "inclination": "021.7749",
        "eccentricity": "7167727",
        "classification": "U",
        "calc_right_ascension": 297.6001,
        "calc_mean_motion_2": 0,
        "ballistic_coefficient": "-.00000039",
        "filename": "tle2011.txt",
        "calc_eccentricity": 0.7167727,
        "mean_motion": "02.22243531",
        "mean_motion_2": "+00000-0"
      }
    },
    {
      "_index": "tle",
      "_type": "_doc",
      "_id": "12MYtnYBAz3ao6c9bYWV",
      "_score": 9.150519,
      "_source": {
        "right_ascension": "170.7361",
        "anomaly": "332.3164",
        "calc_anomaly": 332.3164,
        "satellite_number": 10976,
        "calc_mean_motion": 2.22264288,
        "ephemeris": "0",
        "set_number": "935",
        "calc_ballistic_coefficient": -8.3e-7,
        "epoch": "12001.62775533",
        "international_designator": "78068B",
        "calc_inclination": 21.1236,
        "perigee": "115.4180",
        "revolution_number": "27190",
        "line_number": 31263,
        "calc_perigee": 115.418,
        "drag": "00000+0",
        "text": "1 10976U 78068B   12001.62775533 -.00000083  00000-0  00000-0 0  9356\n2 10976  21.1236 170.7361 7192679 115.4180 332.3164  2.22264288271903",
        "calc_drag": 0,
        "timestamp": "2012-01-01 15:03:58",
        "inclination": "021.1236",
        "eccentricity": "7192679",
        "classification": "U",
        "calc_right_ascension": 170.7361,
        "calc_mean_motion_2": 0,
        "ballistic_coefficient": "-.00000083",
        "filename": "tle2012.txt",
        "calc_eccentricity": 0.7192679,
        "mean_motion": "02.22264288",
        "mean_motion_2": "00000-0"
      }
    },
    {
      "_index": "tle",
      "_type": "_doc",
      "_id": "zWMYtnYBAz3ao6c98JEK",
      "_score": 9.150519,
      "_source": {
        "right_ascension": "168.4776",
        "anomaly": "329.3217",
        "calc_anomaly": 329.3217,
        "satellite_number": 10976,
        "calc_mean_motion": 2.22265592,
        "ephemeris": "0",
        "set_number": "938",
        "calc_ballistic_coefficient": -7.2e-7,
        "epoch": "12007.92278432",
        "international_designator": "78068B",
        "calc_inclination": 21.1386,
        "perigee": "119.4100",
        "revolution_number": "27204",
        "line_number": 219061,
        "calc_perigee": 119.41,
        "drag": "00000+0",
        "text": "1 10976U 78068B   12007.92278432 -.00000072  00000-0  00000-0 0  9382\n2 10976  21.1386 168.4776 7191546 119.4100 329.3217  2.22265592272041",
        "calc_drag": 0,
        "timestamp": "2012-01-07 22:08:48",
        "inclination": "021.1386",
        "eccentricity": "7191546",
        "classification": "U",
        "calc_right_ascension": 168.4776,
        "calc_mean_motion_2": 0,
        "ballistic_coefficient": "-.00000072",
        "filename": "tle2012.txt",
        "calc_eccentricity": 0.7191546,
        "mean_motion": "02.22265592",
        "mean_motion_2": "00000-0"
      }
    },
    {
      "_index": "tle",
      "_type": "_doc",
      "_id": "dWMbtnYBAz3ao6c9c9S3",
      "_score": 9.150519,
      "_source": {
        "right_ascension": "169.4542",
        "anomaly": "330.6439",
        "calc_anomaly": 330.6439,
        "satellite_number": 10976,
        "calc_mean_motion": 2.22265054,
        "ephemeris": "0",
        "set_number": "0938",
        "calc_ballistic_coefficient": -9.9e-7,
        "epoch": "12005.22496710",
        "international_designator": "78068B",
        "calc_inclination": 21.1362,
        "perigee": "117.6917",
        "revolution_number": "27198",
        "line_number": 166871,
        "calc_perigee": 117.6917,
        "drag": "+00000-0",
        "text": "1 10976U 78068B   12005.22496710 -.00000099  00000-0  00000-0 0  9383\n2 10976  21.1362 169.4542 7192254 117.6917 330.6439  2.22265054271986",
        "calc_drag": 0,
        "timestamp": "2012-01-05 05:23:57",
        "inclination": "021.1362",
        "eccentricity": "7192254",
        "classification": "U",
        "calc_right_ascension": 169.4542,
        "calc_mean_motion_2": 0,
        "ballistic_coefficient": "-.00000099",
        "filename": "tle2012.txt",
        "calc_eccentricity": 0.7192254,
        "mean_motion": "02.22265054",
        "mean_motion_2": "+00000-0"
      }
    },
    {
      "_index": "tle",
      "_type": "_doc",
      "_id": "wfMdtnYBwxzt-ZlwTXIm",
      "_score": 9.150519,
      "_source": {
        "right_ascension": "169.9379",
        "anomaly": "331.2755",
        "calc_anomaly": 331.2755,
        "satellite_number": 10976,
        "calc_mean_motion": 2.2226486,
        "ephemeris": "0",
        "set_number": "0937",
        "calc_ballistic_coefficient": -0.000001,
        "epoch": "12003.87602040",
        "international_designator": "78068B",
        "calc_inclination": 21.1311,
        "perigee": "116.8450",
        "revolution_number": "27195",
        "line_number": 135507,
        "calc_perigee": 116.845,
        "drag": "+00000-0",
        "text": "1 10976U 78068B   12003.87602040 -.00000100  00000-0  00000-0 0  9379\n2 10976  21.1311 169.9379 7192540 116.8450 331.2755  2.22264860271953",
        "calc_drag": 0,
        "timestamp": "2012-01-03 21:01:28",
        "inclination": "021.1311",
        "eccentricity": "7192540",
        "classification": "U",
        "calc_right_ascension": 169.9379,
        "calc_mean_motion_2": 0,
        "ballistic_coefficient": "-.00000100",
        "filename": "tle2012.txt",
        "calc_eccentricity": 0.719254,
        "mean_motion": "02.22264860",
        "mean_motion_2": "+00000-0"
      }
    },
    {
      "_index": "tle",
      "_type": "_doc",
      "_id": "Y_MftnYBwxzt-ZlwfKxy",
      "_score": 9.150519,
      "_source": {
        "right_ascension": "170.4130",
        "anomaly": "331.8921",
        "calc_anomaly": 331.8921,
        "satellite_number": 10976,
        "calc_mean_motion": 2.22264281,
        "ephemeris": "0",
        "set_number": "0936",
        "calc_ballistic_coefficient": -9.2e-7,
        "epoch": "12002.52705359",
        "international_designator": "78068B",
        "calc_inclination": 21.1254,
        "perigee": "115.9860",
        "revolution_number": "27192",
        "line_number": 73513,
        "calc_perigee": 115.986,
        "drag": "+00000-0",
        "text": "1 10976U 78068B   12002.52705359 -.00000092  00000-0  00000-0 0  9366\n2 10976  21.1254 170.4130 7192474 115.9860 331.8921  2.22264281271927",
        "calc_drag": 0,
        "timestamp": "2012-01-02 12:38:57",
        "inclination": "021.1254",
        "eccentricity": "7192474",
        "classification": "U",
        "calc_right_ascension": 170.413,
        "calc_mean_motion_2": 0,
        "ballistic_coefficient": "-.00000092",
        "filename": "tle2012.txt",
        "calc_eccentricity": 0.7192474,
        "mean_motion": "02.22264281",
        "mean_motion_2": "+00000-0"
      }
    }
  ]
}